IRIDIUM 39              
1 25042U 97069D   25176.34540193  .00000368  00000+0  91177-4 0  9999
2 25042  86.3925 207.6351 0015495 281.2846  78.6616 14.49226593450140
IRIDIUM 38              
1 25043U 97069E   25176.17052001  .00000243  00000+0  73749-4 0  9994
2 25043  86.3960 229.7971 0004203  83.4337 276.7340 14.38122454447101
IRIDIUM 42              
1 25077U 97077A   25176.39552070  .00000295  00000+0  93997-4 0  9999
2 25077  86.3962 235.8820 0003084  91.9179 268.2371 14.36357544442377
IRIDIUM 44              
1 25078U 97077B   25176.39729127  .00000250  00000+0  72875-4 0  9992
2 25078  86.3967 217.7873 0003001  52.6827 307.4646 14.40246928444880
IRIDIUM 45              
1 25104U 97082A   25176.33745335  .00007890  00000+0  28173-3 0  9999
2 25104  86.3576  43.9358 0113872 301.8578  57.1622 15.22617879453288
IRIDIUM 24              
1 25105U 97082B   25176.42925547  .00000360  00000+0  10334-3 0  9990
2 25105  86.3898  76.8056 0013321  56.4121 303.8349 14.42105326444402
IRIDIUM 51              
1 25262U 98018A   25176.15365089  .00016845  00000+0  36972-3 0  9994
2 25262  86.3831  51.8882 0083957 218.0834 141.4469 15.40135854448256
IRIDIUM 57              
1 25273U 98019B   25176.60410537  .00000225  00000+0  70754-4 0  9998
2 25273  86.3978 141.7365 0002346  86.1348 274.0117 14.35897647425999
